HAWK-12A                
1 64623U 25138C   26192.95437500  .00002346  00000+0  11711-3 0  9991
2 64623  97.4406 195.3231 0015369  57.3615 302.9099 15.18389614 57626
HAWK-13A                
1 67392U 26004AF  26192.49849286  .00002551  00000+0  12394-3 0  9993
2 67392  97.4444 191.0237 0003841 236.2354 123.8515 15.19339898 27454
HAWK-13C                
1 67393U 26004AG  26192.95936280  .00002601  00000+0  12631-3 0  9996
2 67393  97.4588 191.8961 0003705 238.4474 121.6399 15.19342450 27524
HAWK-13B                
1 67396U 26004AK  26192.95927276  .00002605  00000+0  12650-3 0  9999
2 67396  97.4528 191.7218 0005002 238.8402 121.2342 15.19341714 27528
HAWK-14B                
1 68436U 26067W   26192.86352280  .00002345  00000+0  11725-3 0  9994
2 68436  97.4557 150.9619 0001958   8.6338 351.4929 15.18414665 15682
HAWK-14C                
1 68441U 26067AB  26192.86362033  .00002426  00000+0  12119-3 0  9995
2 68441  97.4494 150.8446 0002958  32.5507 327.5909 15.18417591 15683
HAWK-14A                
1 68448U 26067AJ  26191.34804412  .00003037  00000+0  15091-3 0  9997
2 68448  97.4616 149.5897 0003793  28.4291 331.7149 15.18408789 15450
