{"fetched_at":"2026-07-12T07:15:41.752Z","source":"https://celestrak.org/NORAD/elements/gp.php?NAME=HAWK&FORMAT=JSON","constellation":"hawkeye-360","records":[{"OBJECT_NAME":"HAWK-12A","OBJECT_ID":"2025-138C","EPOCH":"2026-07-11T22:54:18.000000","CLASSIFICATION_TYPE":"U","MEAN_MOTION":15.18389614,"ECCENTRICITY":0.00153693,"INCLINATION":97.4406,"RA_OF_ASC_NODE":195.3231,"ARG_OF_PERICENTER":57.3615,"MEAN_ANOMALY":302.9099,"EPHEMERIS_TYPE":0,"NORAD_CAT_ID":64623,"ELEMENT_SET_NO":999,"REV_AT_EPOCH":5762,"BSTAR":0.00011711152,"MEAN_MOTION_DOT":0.00002346,"MEAN_MOTION_DDOT":0},{"OBJECT_NAME":"HAWK-13A","OBJECT_ID":"2026-004AF","EPOCH":"2026-07-11T11:57:49.783104","CLASSIFICATION_TYPE":"U","MEAN_MOTION":15.19339898,"ECCENTRICITY":0.00038414,"INCLINATION":97.4444,"RA_OF_ASC_NODE":191.0237,"ARG_OF_PERICENTER":236.2354,"MEAN_ANOMALY":123.8515,"EPHEMERIS_TYPE":0,"NORAD_CAT_ID":67392,"ELEMENT_SET_NO":999,"REV_AT_EPOCH":2745,"BSTAR":0.00012393586,"MEAN_MOTION_DOT":0.00002551,"MEAN_MOTION_DDOT":0},{"OBJECT_NAME":"HAWK-13C","OBJECT_ID":"2026-004AG","EPOCH":"2026-07-11T23:01:28.945920","CLASSIFICATION_TYPE":"U","MEAN_MOTION":15.1934245,"ECCENTRICITY":0.00037053,"INCLINATION":97.4588,"RA_OF_ASC_NODE":191.8961,"ARG_OF_PERICENTER":238.4474,"MEAN_ANOMALY":121.6399,"EPHEMERIS_TYPE":0,"NORAD_CAT_ID":67393,"ELEMENT_SET_NO":999,"REV_AT_EPOCH":2752,"BSTAR":0.00012631212,"MEAN_MOTION_DOT":0.00002601,"MEAN_MOTION_DDOT":0},{"OBJECT_NAME":"HAWK-13B","OBJECT_ID":"2026-004AK","EPOCH":"2026-07-11T23:01:21.166464","CLASSIFICATION_TYPE":"U","MEAN_MOTION":15.19341714,"ECCENTRICITY":0.00050022,"INCLINATION":97.4528,"RA_OF_ASC_NODE":191.7218,"ARG_OF_PERICENTER":238.8402,"MEAN_ANOMALY":121.2342,"EPHEMERIS_TYPE":0,"NORAD_CAT_ID":67396,"ELEMENT_SET_NO":999,"REV_AT_EPOCH":2752,"BSTAR":0.00012649717,"MEAN_MOTION_DOT":0.00002605,"MEAN_MOTION_DDOT":0},{"OBJECT_NAME":"HAWK-14B","OBJECT_ID":"2026-067W","EPOCH":"2026-07-11T20:43:28.369920","CLASSIFICATION_TYPE":"U","MEAN_MOTION":15.18414665,"ECCENTRICITY":0.00019586,"INCLINATION":97.4557,"RA_OF_ASC_NODE":150.9619,"ARG_OF_PERICENTER":8.6338,"MEAN_ANOMALY":351.4929,"EPHEMERIS_TYPE":0,"NORAD_CAT_ID":68436,"ELEMENT_SET_NO":999,"REV_AT_EPOCH":1568,"BSTAR":0.00011724804,"MEAN_MOTION_DOT":0.00002345,"MEAN_MOTION_DDOT":0},{"OBJECT_NAME":"HAWK-14C","OBJECT_ID":"2026-067AB","EPOCH":"2026-07-11T20:43:36.796512","CLASSIFICATION_TYPE":"U","MEAN_MOTION":15.18417591,"ECCENTRICITY":0.00029581,"INCLINATION":97.4494,"RA_OF_ASC_NODE":150.8446,"ARG_OF_PERICENTER":32.5507,"MEAN_ANOMALY":327.5909,"EPHEMERIS_TYPE":0,"NORAD_CAT_ID":68441,"ELEMENT_SET_NO":999,"REV_AT_EPOCH":1568,"BSTAR":0.00012119434,"MEAN_MOTION_DOT":0.00002426,"MEAN_MOTION_DDOT":0},{"OBJECT_NAME":"HAWK-14A","OBJECT_ID":"2026-067AJ","EPOCH":"2026-07-10T08:21:11.011968","CLASSIFICATION_TYPE":"U","MEAN_MOTION":15.18408789,"ECCENTRICITY":0.00037938,"INCLINATION":97.4616,"RA_OF_ASC_NODE":149.5897,"ARG_OF_PERICENTER":28.4291,"MEAN_ANOMALY":331.7149,"EPHEMERIS_TYPE":0,"NORAD_CAT_ID":68448,"ELEMENT_SET_NO":999,"REV_AT_EPOCH":1545,"BSTAR":0.00015091005,"MEAN_MOTION_DOT":0.00003037,"MEAN_MOTION_DDOT":0}]}
